#dP2022  4 11 18  0  0.00000000      96 __u+U ITR00 EXT  IAC
## 2205 151200.00000000   900.00000000 59680 0.7500000000000
+  117   C06C07C08C09C10C11C12C13C14C16C19C20C21C22C23C24C25
+        C26C27C28C29C30C32C33C34C35C36C37C38C39C40C41C42C43
+        C44C45C46E01E02E03E04E05E07E08E09E10E11E12E13E14E15
+        E18E19E21E24E25E26E27E30E31E33E34E36G01G02G03G04G05
+        G06G07G08G09G10G11G12G13G14G15G16G17G18G19G20G21G22
+        G23G24G25G26G27G28G29G30G31G32J02J03R01R02R03R04R05
+        R07R08R09R11R12R13R14R15R17R18R19R20R21R22R24  0  0
++        10 10  9 10  9  9  8  8  9 10  7  9  8  9  9  9  9
++         7  8  8  7  8  8  9 10 10  9  9 10 11  8  8  9  9
++         8  8  8  7  7  7  8  8  7  8  7  9  9  7  7  8  7
++         8  7  7  7  7  8  8  8  7  7  8  9  7  7  7  8  8
++         8  8  7  8  8  7  8  7  7  7  7  8  8  7  7  8  7
++         8  8  6  6  7  8  8  9  7  7 10 10  8  8  8  7 10
++         9  7  7  8  8  7  8  8  7  8 10 10  9  9  7  0  0
%c M  cc GPS ccc cccc cccc cccc cccc ccccc ccccc ccccc ccccc
%c cc cc ccc ccc cccc cccc cccc cccc ccccc ccccc ccccc ccccc
%f  0.0000000  0.000000000  0.00000000000  0.000000000000000
%f  0.0000000  0.000000000  0.00000000000  0.000000000000000
%i    0    0    0    0      0      0      0      0         0
%i    0    0    0    0      0      0      0      0         0
/* IAC                                ULTRA-RAPID PREDICTION
/* S/V CLOCKS ARE ALIGNED TO GNSS TIME                      
/* G:C1WC2W R:C1PC2P E:C1XC5X C:C2IC6I J:C1CC2S             
/* PCV:IGS14_2196 OL/AL:FES2004  NONE     YN ORB:CoN CLK:CoN
*  2022 04 12 13 15  0.00000000
PC06 -19093.272947  33822.797396 -16660.848471   -218.588657
PC07  -4760.484855  36832.261501 -19832.921561     16.005011
PC08  -7820.140655  19546.528260  36538.339208    254.423994
PC09 -10865.319452  32265.850882 -24824.406748   -689.742822
PC10   2051.953076  39560.177364 -13488.749101    136.444608
PC11   3569.201978 -20362.781035 -18695.436713    287.223673
PC12  18003.366833 -20995.971036  -3710.008233   -628.878175
PC13   2962.693829  23368.853953  35132.876947    -62.794204
PC14  -5503.393261 -27239.216994  -2857.377948    457.227985
PC16 -21018.448321  33598.405740 -14587.585899    118.009586
PC19  11462.004884  24575.425663  -6507.352836    878.844740
PC20   -187.824641  25918.030447  10319.670619   -875.384016
PC21  12469.306608 -11773.812642 -21996.161349    -99.306127
PC22  16941.671955   8914.471284 -20285.396198   -967.046002
PC23 -26933.436156  -7297.601763    159.269959   -933.615590
PC24   5212.075817 -15442.526849  22639.810454   -952.841305
PC25 -16861.189200 -15658.185256  15765.646226   -752.104111
PC26  21506.105086  -6906.159921  16397.453351    752.831110
PC27 -21882.951105  16589.634772  -5049.057517    706.679104
PC28 -20190.653899   1192.553380 -19227.567175     54.435817
PC29   6956.128585  15202.498986  22335.437809    540.356783
PC30 -10649.034102  23036.360275  11626.456644    496.813953
PC32 -12449.456172  11787.584158  22037.219955   -963.567643
PC33 -11610.064952 -24550.729816   6479.383165   -968.566879
PC34   9792.340416 -22952.849024 -12475.683796   -427.248172
PC35  19758.422908   -949.560416  19657.937825    225.391692
PC36  16047.101237  16168.873726 -16100.714052   -964.377595
PC37 -22397.366612   5660.297831 -15628.085988   -924.941170
PC38 -16070.383981  19144.295451  33963.632897    224.627882
PC39 -23784.077531  33946.090809  -8189.303687     34.943478
PC40  -8234.410418  33764.356699 -23778.643591    260.226091
PC41 -17031.257209  -9342.131378  20093.348620   -968.001147
PC42    812.199983 -25588.469322 -11082.065005   -949.906425
PC43  -6400.351620 -15774.708132 -22117.860750   -930.410327
PC44  21324.934676 -17202.078105   5181.269649    625.386350
PC45  26996.421496   7113.633411     97.662636    729.390638
PC46  -3434.265342  15802.684680 -22743.892144   -267.949625
PE01  12310.844434  23859.171110 -12476.319252   -614.950569
PE02 -12439.852790 -23846.887833  12331.987430    292.348269
PE03  -2510.592982 -26672.412095  12605.956817   -547.230648
PE04  14273.770784  11088.197526 -23429.890176  -1004.945151
PE05  10963.084025 -26865.461738  -5849.376537   -191.545002
PE07 -17875.077461  11418.106603  20653.412033   -657.857372
PE08 -14325.101808 -10663.171698  23614.609475   -511.073360
PE09  17690.717930 -11730.651414 -20627.735898   -481.710575
PE10  27918.750376  -1787.290719   9657.791705   -506.245998
PE11  28301.903709  -8613.895006   -518.361307   3978.969549
PE12  23146.487638   5208.167918  17682.072298   4666.585477
PE13 -28430.684333   8264.343819   -179.234238    427.970878
PE14 -16516.123087 -12461.769483 -24374.753658  -1811.446871
PE15 -23067.744495  -5179.459509 -17814.126698    752.124280
PE18  16958.570404   -983.659614  17933.879569  -1573.384275
PE19    650.602361  27636.586266 -10574.384044  -2890.428927
PE21  -4843.789901  17477.568339 -23399.322869   -728.022133
PE24  20956.919434    532.593795  20890.065271   -556.914461
PE25   5102.213912 -17295.747235  23472.320934   -570.136873
PE26 -16168.396991  17012.261962  18043.831074  -1021.667938
PE27 -20293.770061    724.166816 -21533.591812   -274.555944
PE30 -23393.108700 -17080.855851  -6069.501606   -424.747376
PE31  23681.470698  16321.225029   7014.195989   -494.955030
PE33   4103.788583  15520.083513  24872.237657   -457.682716
PE34  -4379.830505 -15444.877642 -24874.331370   -511.672636
PE36  17050.942524 -16759.251706 -17439.335386   -358.621210
PG01  -6721.536260 -13731.788578 -22049.771715    386.751276
PG02 -15920.467163  15004.949618  15816.252615   -653.065288
PG03 -11896.814086 -22695.342046  -7315.930073   -203.582323
PG04  -1810.587301 -21983.610277  14741.915531   -176.517569
PG05  -1101.675161  18607.758737  18699.762735    -78.036542
PG06 -25874.231993   5653.237013   2596.453111    264.086003
PG07 -21772.214566  -7029.348869  14293.132050    319.945409
PG08   4742.626420 -25250.970095  -5989.927075    -63.637118
PG09 -10533.655655 -13269.024411  20381.533503   -344.194420
PG10  19687.015237   6169.978070 -16742.494126   -376.826482
PG11 -17025.719155  12794.124142  15859.864269    -41.605232
PG12   7433.056266  23396.976965 -10560.313351   -199.223284
PG13 -13107.835254  22982.909235    566.364597    292.882771
PG14 -19794.608456  -7376.264124 -16154.169980   -101.930116
PG15  -1038.074061  25569.375425  -6877.634477    -69.515722
PG16   6860.057391 -14991.466942  20442.739387   -490.876602
PG17 -16651.669282   4344.898645 -19819.436917    599.401686
PG18  21296.750453   6983.888814  14327.459162    197.338659
PG19 -17999.699674  10686.740230 -16490.336152    143.402296
PG20  -9477.202821  12463.958165  21462.038524    515.861234
PG21   4938.912568 -15637.072981 -20093.193304    160.370452
PG22  17451.185364 -14053.097859 -13709.485323    242.193704
PG23  20296.266469  15186.761701  -8106.040972    -14.373654
PG24   2747.034315  15692.016465 -21537.923374    257.527615
PG25  17564.329947  20061.668349   1303.240507    310.978636
PG26  15512.617217  -5566.903269  20791.667321    198.054617
PG27  12493.095234 -22559.485716   5194.275847    181.179034
PG28 -16269.363668    855.494058 -20414.376344    372.047564
PG29   8063.908914  14848.158784  20426.011882   -502.227693
PG30 -25948.679786  -1058.793281   6248.343661   -523.410802
PG31  25473.736919  -6769.142370   4780.953917   -173.093302
PG32  16948.001004  -7240.760544 -18912.715557   -103.873879
PJ02 -22593.339799  18375.595586 -25991.501409     -2.664204
PJ03 -29183.532679  30478.222600   6207.905502     -1.498629
PR01  -6462.190766 -23274.180798   8232.475272      7.751843
PR02 -10915.468746  -7165.084774  21949.515134    515.312507
PR03  -8885.329728  11997.526884  20747.970707     54.785910
PR04  -1907.661326  24125.778963   8106.879805    136.341543
PR05   5998.083791  23091.066104  -9040.758939     91.021690
PR07   8645.991058 -12645.538475 -20337.827228     33.763226
PR08   1741.391241 -24185.324772  -7819.695325    -64.579737
PR09  23706.821629   8323.215623   4187.685665     49.380711
PR11   1384.464298 -11244.754966  22862.231477     41.363441
PR12 -16274.526128 -14520.359078  13232.793640     17.897079
PR13 -23646.073995  -9096.838687  -2975.164326    -20.776128
PR14 -17073.182467   2178.688211 -18824.613407     76.439953
PR15   -731.133940  11651.561736 -22663.900936     96.883906
PR17 -21489.256423  13530.930406  -2222.033293    516.935616
PR18 -13381.878116  16628.066908  14025.386948    113.321769
PR19    474.762331  11627.466604  22696.626156   -185.096176
PR20  17644.179250  -1592.282583  18335.205452    -68.492578
PR21  21283.511278 -14059.509006    725.281793   -292.749660
PR22  12709.627575 -16391.405922 -14789.230889   -176.440049
PR24 -18225.353296   2250.514694 -17686.927013     88.741455
EOF
